{"fetched_at":"2026-07-17T06:37:53.250Z","source":"https://celestrak.org/NORAD/elements/gp.php?GROUP=planet&FORMAT=JSON","constellation":"skysat","records":[{"OBJECT_NAME":"SKYSAT-A","OBJECT_ID":"2013-066C","EPOCH":"2026-07-16T14:53:44.960064","CLASSIFICATION_TYPE":"U","MEAN_MOTION":15.13119725,"ECCENTRICITY":0.0020608,"INCLINATION":97.3802,"RA_OF_ASC_NODE":246.0799,"ARG_OF_PERICENTER":208.2257,"MEAN_ANOMALY":151.7859,"EPHEMERIS_TYPE":0,"NORAD_CAT_ID":39418,"ELEMENT_SET_NO":999,"REV_AT_EPOCH":69293,"BSTAR":0.000087583,"MEAN_MOTION_DOT":0.00001494,"MEAN_MOTION_DDOT":0},{"OBJECT_NAME":"SKYSAT-B","OBJECT_ID":"2014-037D","EPOCH":"2026-07-16T10:37:31.469376","CLASSIFICATION_TYPE":"U","MEAN_MOTION":14.88093555,"ECCENTRICITY":0.0005674,"INCLINATION":98.3854,"RA_OF_ASC_NODE":158.0796,"ARG_OF_PERICENTER":168.9313,"MEAN_ANOMALY":191.2027,"EPHEMERIS_TYPE":0,"NORAD_CAT_ID":40072,"ELEMENT_SET_NO":999,"REV_AT_EPOCH":65031,"BSTAR":0.000071529,"MEAN_MOTION_DOT":0.00000596,"MEAN_MOTION_DDOT":0},{"OBJECT_NAME":"SKYSAT-C1","OBJECT_ID":"2016-040C","EPOCH":"2026-07-16T15:39:15.301152","CLASSIFICATION_TYPE":"U","MEAN_MOTION":15.36763049,"ECCENTRICITY":0.0000246,"INCLINATION":96.9547,"RA_OF_ASC_NODE":227.7813,"ARG_OF_PERICENTER":251.8457,"MEAN_ANOMALY":108.2762,"EPHEMERIS_TYPE":0,"NORAD_CAT_ID":41601,"ELEMENT_SET_NO":999,"REV_AT_EPOCH":56239,"BSTAR":0.00014428,"MEAN_MOTION_DOT":0.00005107,"MEAN_MOTION_DDOT":0},{"OBJECT_NAME":"SKYSAT-C4","OBJECT_ID":"2016-058B","EPOCH":"2026-07-16T14:17:14.047872","CLASSIFICATION_TYPE":"U","MEAN_MOTION":15.49466219,"ECCENTRICITY":0.0003471,"INCLINATION":96.916,"RA_OF_ASC_NODE":218.152,"ARG_OF_PERICENTER":115.6597,"MEAN_ANOMALY":244.5014,"EPHEMERIS_TYPE":0,"NORAD_CAT_ID":41771,"ELEMENT_SET_NO":999,"REV_AT_EPOCH":55002,"BSTAR":0.0001973,"MEAN_MOTION_DOT":0.00010768,"MEAN_MOTION_DDOT":0},{"OBJECT_NAME":"SKYSAT-C5","OBJECT_ID":"2016-058C","EPOCH":"2026-07-16T15:31:09.401376","CLASSIFICATION_TYPE":"U","MEAN_MOTION":15.33730928,"ECCENTRICITY":0.0002707,"INCLINATION":97.0452,"RA_OF_ASC_NODE":236.9643,"ARG_OF_PERICENTER":156.7043,"MEAN_ANOMALY":203.4323,"EPHEMERIS_TYPE":0,"NORAD_CAT_ID":41772,"ELEMENT_SET_NO":999,"REV_AT_EPOCH":54826,"BSTAR":0.00012421,"MEAN_MOTION_DOT":0.00003977,"MEAN_MOTION_DDOT":0},{"OBJECT_NAME":"SKYSAT-C2","OBJECT_ID":"2016-058D","EPOCH":"2026-07-16T20:13:58.391616","CLASSIFICATION_TYPE":"U","MEAN_MOTION":15.42703276,"ECCENTRICITY":0.000119,"INCLINATION":97.0156,"RA_OF_ASC_NODE":218.8331,"ARG_OF_PERICENTER":345.3927,"MEAN_ANOMALY":14.7287,"EPHEMERIS_TYPE":0,"NORAD_CAT_ID":41773,"ELEMENT_SET_NO":999,"REV_AT_EPOCH":54962,"BSTAR":0.00016203,"MEAN_MOTION_DOT":0.00006988,"MEAN_MOTION_DDOT":0},{"OBJECT_NAME":"SKYSAT-C3","OBJECT_ID":"2016-058E","EPOCH":"2026-07-16T15:37:37.303680","CLASSIFICATION_TYPE":"U","MEAN_MOTION":15.53750527,"ECCENTRICITY":0.0002596,"INCLINATION":96.899,"RA_OF_ASC_NODE":227.3861,"ARG_OF_PERICENTER":131.3109,"MEAN_ANOMALY":228.837,"EPHEMERIS_TYPE":0,"NORAD_CAT_ID":41774,"ELEMENT_SET_NO":999,"REV_AT_EPOCH":55068,"BSTAR":0.00022895,"MEAN_MOTION_DOT":0.00014584,"MEAN_MOTION_DDOT":0},{"OBJECT_NAME":"SKYSAT-C11","OBJECT_ID":"2017-068A","EPOCH":"2026-07-16T20:18:18.529920","CLASSIFICATION_TYPE":"U","MEAN_MOTION":15.59385175,"ECCENTRICITY":0.0001161,"INCLINATION":97.4384,"RA_OF_ASC_NODE":348.0068,"ARG_OF_PERICENTER":155.9062,"MEAN_ANOMALY":204.2249,"EPHEMERIS_TYPE":0,"NORAD_CAT_ID":42987,"ELEMENT_SET_NO":999,"REV_AT_EPOCH":48786,"BSTAR":0.00024059,"MEAN_MOTION_DOT":0.0001889,"MEAN_MOTION_DDOT":0},{"OBJECT_NAME":"SKYSAT-C10","OBJECT_ID":"2017-068B","EPOCH":"2026-07-16T15:06:16.635744","CLASSIFICATION_TYPE":"U","MEAN_MOTION":15.35133944,"ECCENTRICITY":0.0001491,"INCLINATION":97.4544,"RA_OF_ASC_NODE":334.7788,"ARG_OF_PERICENTER":111.2984,"MEAN_ANOMALY":248.8418,"EPHEMERIS_TYPE":0,"NORAD_CAT_ID":42988,"ELEMENT_SET_NO":999,"REV_AT_EPOCH":48687,"BSTAR":0.00018042,"MEAN_MOTION_DOT":0.00006069,"MEAN_MOTION_DDOT":0},{"OBJECT_NAME":"SKYSAT-C9","OBJECT_ID":"2017-068C","EPOCH":"2026-07-16T19:57:39.457152","CLASSIFICATION_TYPE":"U","MEAN_MOTION":15.4223898,"ECCENTRICITY":0.0008497,"INCLINATION":97.4465,"RA_OF_ASC_NODE":336.2058,"ARG_OF_PERICENTER":39.4522,"MEAN_ANOMALY":320.7343,"EPHEMERIS_TYPE":0,"NORAD_CAT_ID":42989,"ELEMENT_SET_NO":999,"REV_AT_EPOCH":48732,"BSTAR":0.00017908,"MEAN_MOTION_DOT":0.00007614,"MEAN_MOTION_DDOT":0},{"OBJECT_NAME":"SKYSAT-C8","OBJECT_ID":"2017-068D","EPOCH":"2026-07-16T08:38:40.632000","CLASSIFICATION_TYPE":"U","MEAN_MOTION":15.3750412,"ECCENTRICITY":0.0001223,"INCLINATION":97.456,"RA_OF_ASC_NODE":334.4189,"ARG_OF_PERICENTER":104.1134,"MEAN_ANOMALY":256.0246,"EPHEMERIS_TYPE":0,"NORAD_CAT_ID":42990,"ELEMENT_SET_NO":999,"REV_AT_EPOCH":48679,"BSTAR":0.00014989,"MEAN_MOTION_DOT":0.00005429,"MEAN_MOTION_DDOT":0},{"OBJECT_NAME":"SKYSAT-C7","OBJECT_ID":"2017-068E","EPOCH":"2026-07-16T14:45:40.406400","CLASSIFICATION_TYPE":"U","MEAN_MOTION":15.37458346,"ECCENTRICITY":0.0005615,"INCLINATION":97.4572,"RA_OF_ASC_NODE":335.6692,"ARG_OF_PERICENTER":16.6031,"MEAN_ANOMALY":343.5396,"EPHEMERIS_TYPE":0,"NORAD_CAT_ID":42991,"ELEMENT_SET_NO":999,"REV_AT_EPOCH":48689,"BSTAR":0.00015969,"MEAN_MOTION_DOT":0.00005783,"MEAN_MOTION_DDOT":0},{"OBJECT_NAME":"SKYSAT-C6","OBJECT_ID":"2017-068F","EPOCH":"2026-07-16T19:46:00.076800","CLASSIFICATION_TYPE":"U","MEAN_MOTION":15.34186474,"ECCENTRICITY":0.0005073,"INCLINATION":97.461,"RA_OF_ASC_NODE":335.7271,"ARG_OF_PERICENTER":85.4144,"MEAN_ANOMALY":274.7678,"EPHEMERIS_TYPE":0,"NORAD_CAT_ID":42992,"ELEMENT_SET_NO":999,"REV_AT_EPOCH":48686,"BSTAR":0.00015637,"MEAN_MOTION_DOT":0.00005094,"MEAN_MOTION_DDOT":0},{"OBJECT_NAME":"SKYSAT-C12","OBJECT_ID":"2018-099AR","EPOCH":"2026-07-16T20:50:05.161056","CLASSIFICATION_TYPE":"U","MEAN_MOTION":15.49822421,"ECCENTRICITY":0.0005237,"INCLINATION":96.9251,"RA_OF_ASC_NODE":219.9283,"ARG_OF_PERICENTER":66.5445,"MEAN_ANOMALY":293.6358,"EPHEMERIS_TYPE":0,"NORAD_CAT_ID":43797,"ELEMENT_SET_NO":999,"REV_AT_EPOCH":42645,"BSTAR":0.00019645,"MEAN_MOTION_DOT":0.0001086,"MEAN_MOTION_DDOT":0}]}
